ION SCV-014             
1 62630U 25009X   26068.71776957  .00001812  00000+0  13229-3 0  9995
2 62630  97.4923 144.8636 0006450 112.6479 247.5430 15.04884649 63025
STARLINK-34965          
1 65186U 25175N   26068.64117302  .00009691  00000+0  67479-3 0  9992
2 65186  97.6003 302.6166 0003384  86.2228 273.9386 15.05654944 32638
